{
  "type": "FeatureCollection",
  "features": [
    {
      "type": "Feature",
      "properties": {
        "norad_id": 25590,
        "name": "COSMOS 2361",
        "group": "musson",
        "lat": 28.536814391012776,
        "lon": 149.0397819978106,
        "alt_km": 979.25535642253,
        "timestamp": "2025-12-27T20:30:59.551324+00:00",
        "meta_object_name": "COSMOS 2361",
        "meta_object_id": "1998-076A",
        "meta_epoch": "2025-12-27T11:37:08.932224",
        "meta_mean_motion": 13.73219172,
        "meta_eccentricity": 0.0030428,
        "meta_inclination": 82.9346,
        "meta_ra_of_asc_node": 333.1808,
        "meta_arg_of_pericenter": 222.9869,
        "meta_mean_anomaly": 256.7901,
        "meta_ephemeris_type": 0,
        "meta_classification_type": "U",
        "meta_norad_cat_id": 25590,
        "meta_element_set_no": 999,
        "meta_rev_at_epoch": 35313,
        "meta_bstar": 7.162e-05,
        "meta_mean_motion_dot": 8.1e-07,
        "meta_mean_motion_ddot": 0,
        "tle_line1": "1 25590U 98076A   25361.48413116  .00000081  00000+0  71620-4 0  9994",
        "tle_line2": "2 25590  82.9346 333.1808 0030428 222.9869 256.7901 13.73219172353137"
      },
      "geometry": {
        "type": "Point",
        "coordinates": [
          149.0397819978106,
          28.536814391012776
        ]
      }
    },
    {
      "type": "Feature",
      "properties": {
        "norad_id": 26818,
        "name": "COSMOS 2378",
        "group": "musson",
        "lat": -81.53107947960935,
        "lon": -67.97493850317568,
        "alt_km": 1001.2519619688328,
        "timestamp": "2025-12-27T20:30:59.551345+00:00",
        "meta_object_name": "COSMOS 2378",
        "meta_object_id": "2001-023A",
        "meta_epoch": "2025-12-27T12:47:08.465568",
        "meta_mean_motion": 13.74143244,
        "meta_eccentricity": 0.0033336,
        "meta_inclination": 82.9272,
        "meta_ra_of_asc_node": 348.7551,
        "meta_arg_of_pericenter": 163.5383,
        "meta_mean_anomaly": 318.1824,
        "meta_ephemeris_type": 0,
        "meta_classification_type": "U",
        "meta_norad_cat_id": 26818,
        "meta_element_set_no": 999,
        "meta_rev_at_epoch": 23126,
        "meta_bstar": 5.7701e-05,
        "meta_mean_motion_dot": 7e-07,
        "meta_mean_motion_ddot": 0,
        "tle_line1": "1 26818U 01023A   25361.53273687  .00000070  00000+0  57701-4 0  9999",
        "tle_line2": "2 26818  82.9272 348.7551 0033336 163.5383 318.1824 13.74143244231261"
      },
      "geometry": {
        "type": "Point",
        "coordinates": [
          -67.97493850317568,
          -81.53107947960935
        ]
      }
    },
    {
      "type": "Feature",
      "properties": {
        "norad_id": 27436,
        "name": "COSMOS 2389",
        "group": "musson",
        "lat": 3.3941591367054604,
        "lon": 115.37574594420724,
        "alt_km": 1015.3685470804649,
        "timestamp": "2025-12-27T20:30:59.551359+00:00",
        "meta_object_name": "COSMOS 2389",
        "meta_object_id": "2002-026A",
        "meta_epoch": "2025-12-27T07:59:33.049824",
        "meta_mean_motion": 13.75156231,
        "meta_eccentricity": 0.0046957,
        "meta_inclination": 82.9514,
        "meta_ra_of_asc_node": 296.1823,
        "meta_arg_of_pericenter": 20.8637,
        "meta_mean_anomaly": 93.4735,
        "meta_ephemeris_type": 0,
        "meta_classification_type": "U",
        "meta_norad_cat_id": 27436,
        "meta_element_set_no": 999,
        "meta_rev_at_epoch": 18349,
        "meta_bstar": 6.5449e-05,
        "meta_mean_motion_dot": 7.8e-07,
        "meta_mean_motion_ddot": 0,
        "tle_line1": "1 27436U 02026A   25361.33302141  .00000078  00000+0  65449-4 0  9992",
        "tle_line2": "2 27436  82.9514 296.1823 0046957  20.8637  93.4735 13.75156231183491"
      },
      "geometry": {
        "type": "Point",
        "coordinates": [
          115.37574594420724,
          3.3941591367054604
        ]
      }
    },
    {
      "type": "Feature",
      "properties": {
        "norad_id": 27818,
        "name": "COSMOS 2398",
        "group": "musson",
        "lat": -21.8521464340679,
        "lon": -101.28483327849435,
        "alt_km": 997.6240124260512,
        "timestamp": "2025-12-27T20:30:59.551371+00:00",
        "meta_object_name": "COSMOS 2398",
        "meta_object_id": "2003-023A",
        "meta_epoch": "2025-12-27T05:25:12.592416",
        "meta_mean_motion": 13.72387353,
        "meta_eccentricity": 0.0032677,
        "meta_inclination": 82.9481,
        "meta_ra_of_asc_node": 262.0239,
        "meta_arg_of_pericenter": 73.2154,
        "meta_mean_anomaly": 39.2775,
        "meta_ephemeris_type": 0,
        "meta_classification_type": "U",
        "meta_norad_cat_id": 27818,
        "meta_element_set_no": 999,
        "meta_rev_at_epoch": 13015,
        "meta_bstar": 6.3403e-05,
        "meta_mean_motion_dot": 7.4e-07,
        "meta_mean_motion_ddot": 0,
        "tle_line1": "1 27818U 03023A   25361.22584019  .00000074  00000+0  63403-4 0  9992",
        "tle_line2": "2 27818  82.9481 262.0239 0032677  73.2154  39.2775 13.72387353130156"
      },
      "geometry": {
        "type": "Point",
        "coordinates": [
          -101.28483327849435,
          -21.8521464340679
        ]
      }
    },
    {
      "type": "Feature",
      "properties": {
        "norad_id": 28380,
        "name": "COSMOS 2407",
        "group": "musson",
        "lat": 27.420564962720245,
        "lon": -154.62286373926761,
        "alt_km": 947.5897224321398,
        "timestamp": "2025-12-27T20:30:59.551382+00:00",
        "meta_object_name": "COSMOS 2407",
        "meta_object_id": "2004-028A",
        "meta_epoch": "2025-12-27T11:57:58.659840",
        "meta_mean_motion": 13.76315285,
        "meta_eccentricity": 0.0039578,
        "meta_inclination": 82.9592,
        "meta_ra_of_asc_node": 201.9649,
        "meta_arg_of_pericenter": 14.4203,
        "meta_mean_anomaly": 49.0337,
        "meta_ephemeris_type": 0,
        "meta_classification_type": "U",
        "meta_norad_cat_id": 28380,
        "meta_element_set_no": 999,
        "meta_rev_at_epoch": 7626,
        "meta_bstar": 5.0511e-05,
        "meta_mean_motion_dot": 6.5e-07,
        "meta_mean_motion_ddot": 0,
        "tle_line1": "1 28380U 04028A   25361.49859560  .00000065  00000+0  50511-4 0  9994",
        "tle_line2": "2 28380  82.9592 201.9649 0039578  14.4203  49.0337 13.76315285 76263"
      },
      "geometry": {
        "type": "Point",
        "coordinates": [
          -154.62286373926761,
          27.420564962720245
        ]
      }
    },
    {
      "type": "Feature",
      "properties": {
        "norad_id": 28521,
        "name": "COSMOS 2414",
        "group": "musson",
        "lat": -21.29301663395534,
        "lon": -4.005195701578825,
        "alt_km": 948.2034458693606,
        "timestamp": "2025-12-27T20:30:59.551393+00:00",
        "meta_object_name": "COSMOS 2414",
        "meta_object_id": "2005-002A",
        "meta_epoch": "2025-12-27T10:54:10.050336",
        "meta_mean_motion": 13.87904848,
        "meta_eccentricity": 0.0041451,
        "meta_inclination": 82.9489,
        "meta_ra_of_asc_node": 173.5329,
        "meta_arg_of_pericenter": 98.9494,
        "meta_mean_anomaly": 261.6365,
        "meta_ephemeris_type": 0,
        "meta_classification_type": "U",
        "meta_norad_cat_id": 28521,
        "meta_element_set_no": 999,
        "meta_rev_at_epoch": 5999,
        "meta_bstar": 5.9505e-05,
        "meta_mean_motion_dot": 8.7e-07,
        "meta_mean_motion_ddot": 0,
        "tle_line1": "1 28521U 05002A   25361.45428299  .00000087  00000+0  59505-4 0  9997",
        "tle_line2": "2 28521  82.9489 173.5329 0041451  98.9494 261.6365 13.87904848 59991"
      },
      "geometry": {
        "type": "Point",
        "coordinates": [
          -4.005195701578825,
          -21.29301663395534
        ]
      }
    },
    {
      "type": "Feature",
      "properties": {
        "norad_id": 32052,
        "name": "COSMOS 2429",
        "group": "musson",
        "lat": 1.7081069018569526,
        "lon": -27.623656707681434,
        "alt_km": 955.7147124528938,
        "timestamp": "2025-12-27T20:30:59.551404+00:00",
        "meta_object_name": "COSMOS 2429",
        "meta_object_id": "2007-038A",
        "meta_epoch": "2025-12-27T06:32:18.000384",
        "meta_mean_motion": 13.75150856,
        "meta_eccentricity": 0.0038359,
        "meta_inclination": 82.981,
        "meta_ra_of_asc_node": 332.595,
        "meta_arg_of_pericenter": 357.7668,
        "meta_mean_anomaly": 2.331,
        "meta_ephemeris_type": 0,
        "meta_classification_type": "U",
        "meta_norad_cat_id": 32052,
        "meta_element_set_no": 999,
        "meta_rev_at_epoch": 91802,
        "meta_bstar": 6.6146e-05,
        "meta_mean_motion_dot": 7.9e-07,
        "meta_mean_motion_ddot": 0,
        "tle_line1": "1 32052U 07038A   25361.27243056  .00000079  00000+0  66146-4 0  9998",
        "tle_line2": "2 32052  82.9810 332.5950 0038359 357.7668   2.3310 13.75150856918029"
      },
      "geometry": {
        "type": "Point",
        "coordinates": [
          -27.623656707681434,
          1.7081069018569526
        ]
      }
    },
    {
      "type": "Feature",
      "properties": {
        "norad_id": 35635,
        "name": "COSMOS 2454",
        "group": "musson",
        "lat": 0.9185315019929869,
        "lon": 157.3004872309178,
        "alt_km": 919.3247740572069,
        "timestamp": "2025-12-27T20:30:59.551414+00:00",
        "meta_object_name": "COSMOS 2454",
        "meta_object_id": "2009-039A",
        "meta_epoch": "2025-12-27T12:09:55.268352",
        "meta_mean_motion": 13.89930467,
        "meta_eccentricity": 0.0019872,
        "meta_inclination": 82.956,
        "meta_ra_of_asc_node": 157.4507,
        "meta_arg_of_pericenter": 33.8497,
        "meta_mean_anomaly": 27.1719,
        "meta_ephemeris_type": 0,
        "meta_classification_type": "U",
        "meta_norad_cat_id": 35635,
        "meta_element_set_no": 999,
        "meta_rev_at_epoch": 83355,
        "meta_bstar": 6.2489e-05,
        "meta_mean_motion_dot": 9.3e-07,
        "meta_mean_motion_ddot": 0,
        "tle_line1": "1 35635U 09039A   25361.50688968  .00000093  00000+0  62489-4 0  9994",
        "tle_line2": "2 35635  82.9560 157.4507 0019872  33.8497  27.1719 13.89930467833555"
      },
      "geometry": {
        "type": "Point",
        "coordinates": [
          157.3004872309178,
          0.9185315019929869
        ]
      }
    },
    {
      "type": "Feature",
      "properties": {
        "norad_id": 36519,
        "name": "COSMOS 2463",
        "group": "musson",
        "lat": 51.70716357121318,
        "lon": -173.39942197709624,
        "alt_km": 1000.4112373784292,
        "timestamp": "2025-12-27T20:30:59.551424+00:00",
        "meta_object_name": "COSMOS 2463",
        "meta_object_id": "2010-017A",
        "meta_epoch": "2025-12-27T11:53:27.038112",
        "meta_mean_motion": 13.71650418,
        "meta_eccentricity": 0.0034867,
        "meta_inclination": 82.9603,
        "meta_ra_of_asc_node": 15.8683,
        "meta_arg_of_pericenter": 245.6019,
        "meta_mean_anomaly": 268.7083,
        "meta_ephemeris_type": 0,
        "meta_classification_type": "U",
        "meta_norad_cat_id": 36519,
        "meta_element_set_no": 999,
        "meta_rev_at_epoch": 78439,
        "meta_bstar": 4.3867e-05,
        "meta_mean_motion_dot": 5.4e-07,
        "meta_mean_motion_ddot": 0,
        "tle_line1": "1 36519U 10017A   25361.49545183  .00000054  00000+0  43867-4 0  9999",
        "tle_line2": "2 36519  82.9603  15.8683 0034867 245.6019 268.7083 13.71650418784391"
      },
      "geometry": {
        "type": "Point",
        "coordinates": [
          -173.39942197709624,
          51.70716357121318
        ]
      }
    }
  ]
}